{
  "type": "FeatureCollection",
  "features": [
    {
      "type": "Feature",
      "properties": {
        "norad_id": 51444,
        "name": "CSG-2",
        "group": "resource",
        "lat": 81.33459705210886,
        "lon": 93.77182115978445,
        "alt_km": 614.0733422679541,
        "timestamp": "2025-12-03T15:48:02.759447+00:00",
        "meta_object_name": "CSG-2",
        "meta_object_id": "2022-008A",
        "meta_epoch": "2025-12-03T08:55:53.281344",
        "meta_mean_motion": 14.82148336,
        "meta_eccentricity": 0.00014808,
        "meta_inclination": 97.8807,
        "meta_ra_of_asc_node": 158.8365,
        "meta_arg_of_pericenter": 90.2189,
        "meta_mean_anomaly": 269.9194,
        "meta_ephemeris_type": 0,
        "meta_classification_type": "U",
        "meta_norad_cat_id": 51444,
        "meta_element_set_no": 999,
        "meta_rev_at_epoch": 20758,
        "meta_bstar": 0.00014270566,
        "meta_mean_motion_dot": 1.084e-05,
        "meta_mean_motion_ddot": 0,
        "tle_line1": "1 51444U 22008A   25337.37214446  .00001084  00000+0  14271-3 0  9991",
        "tle_line2": "2 51444  97.8807 158.8365 0001480  90.2189 269.9194 14.82148336207589"
      },
      "geometry": {
        "type": "Point",
        "coordinates": [
          93.77182115978445,
          81.33459705210886
        ]
      }
    },
    {
      "type": "Feature",
      "properties": {
        "norad_id": 52912,
        "name": "GAOFEN-12 03",
        "group": "resource",
        "lat": 81.47734932067554,
        "lon": 158.21745797626232,
        "alt_km": 621.6357539257342,
        "timestamp": "2025-12-03T15:48:02.759456+00:00",
        "meta_object_name": "GAOFEN-12 03",
        "meta_object_id": "2022-069A",
        "meta_epoch": "2025-12-03T07:17:42.810144",
        "meta_mean_motion": 14.79571718,
        "meta_eccentricity": 0.0002322,
        "meta_inclination": 97.8487,
        "meta_ra_of_asc_node": 224.8707,
        "meta_arg_of_pericenter": 75.764,
        "meta_mean_anomaly": 284.383,
        "meta_ephemeris_type": 0,
        "meta_classification_type": "U",
        "meta_norad_cat_id": 52912,
        "meta_element_set_no": 999,
        "meta_rev_at_epoch": 18564,
        "meta_bstar": 0.00024064021,
        "meta_mean_motion_dot": 1.751e-05,
        "meta_mean_motion_ddot": 0,
        "tle_line1": "1 52912U 22069A   25337.30396771  .00001751  00000+0  24064-3 0  9996",
        "tle_line2": "2 52912  97.8487 224.8707 0002322  75.7640 284.3830 14.79571718185644"
      },
      "geometry": {
        "type": "Point",
        "coordinates": [
          158.21745797626232,
          81.47734932067554
        ]
      }
    },
    {
      "type": "Feature",
      "properties": {
        "norad_id": 54754,
        "name": "SWOT",
        "group": "resource",
        "lat": 47.20177570161865,
        "lon": 105.51647608737059,
        "alt_km": 888.6043186253701,
        "timestamp": "2025-12-03T15:48:02.759465+00:00",
        "meta_object_name": "SWOT",
        "meta_object_id": "2022-173A",
        "meta_epoch": "2025-12-03T08:18:59.765184",
        "meta_mean_motion": 14.00172416,
        "meta_eccentricity": 3.108e-05,
        "meta_inclination": 77.6099,
        "meta_ra_of_asc_node": 299.6704,
        "meta_arg_of_pericenter": 138.7366,
        "meta_mean_anomaly": 221.3809,
        "meta_ephemeris_type": 0,
        "meta_classification_type": "U",
        "meta_norad_cat_id": 54754,
        "meta_element_set_no": 999,
        "meta_rev_at_epoch": 15174,
        "meta_bstar": 6.5065883e-05,
        "meta_mean_motion_dot": 9.3e-07,
        "meta_mean_motion_ddot": 0,
        "tle_line1": "1 54754U 22173A   25337.34652506  .00000093  00000+0  65066-4 0  9999",
        "tle_line2": "2 54754  77.6099 299.6704 0000310 138.7366 221.3809 14.00172416151749"
      },
      "geometry": {
        "type": "Point",
        "coordinates": [
          105.51647608737059,
          47.20177570161865
        ]
      }
    },
    {
      "type": "Feature",
      "properties": {
        "norad_id": 57654,
        "name": "GAOFEN-12 04",
        "group": "resource",
        "lat": -71.67970442792108,
        "lon": 48.72129657703642,
        "alt_km": 638.7315377037712,
        "timestamp": "2025-12-03T15:48:02.759474+00:00",
        "meta_object_name": "GAOFEN-12 04",
        "meta_object_id": "2023-123A",
        "meta_epoch": "2025-12-03T08:10:01.494048",
        "meta_mean_motion": 14.79653825,
        "meta_eccentricity": 0.00014579,
        "meta_inclination": 97.9113,
        "meta_ra_of_asc_node": 253.2407,
        "meta_arg_of_pericenter": 71.1097,
        "meta_mean_anomaly": 289.0272,
        "meta_ephemeris_type": 0,
        "meta_classification_type": "U",
        "meta_norad_cat_id": 57654,
        "meta_element_set_no": 999,
        "meta_rev_at_epoch": 12366,
        "meta_bstar": 0.00028673524,
        "meta_mean_motion_dot": 2.1e-05,
        "meta_mean_motion_ddot": 0,
        "tle_line1": "1 57654U 23123A   25337.34029507  .00002100  00000+0  28674-3 0  9990",
        "tle_line2": "2 57654  97.9113 253.2407 0001457  71.1097 289.0272 14.79653825123662"
      },
      "geometry": {
        "type": "Point",
        "coordinates": [
          48.72129657703642,
          -71.67970442792108
        ]
      }
    },
    {
      "type": "Feature",
      "properties": {
        "norad_id": 59065,
        "name": "PARS 1",
        "group": "resource",
        "lat": 81.35075074567862,
        "lon": -172.09776967527296,
        "alt_km": 428.12573965066076,
        "timestamp": "2025-12-03T15:48:02.759483+00:00",
        "meta_object_name": "PARS 1",
        "meta_object_id": "2024-039Q",
        "meta_epoch": "2025-12-03T07:35:57.450624",
        "meta_mean_motion": 15.40647767,
        "meta_eccentricity": 0.00126576,
        "meta_inclination": 97.4618,
        "meta_ra_of_asc_node": 308.0531,
        "meta_arg_of_pericenter": 99.9884,
        "meta_mean_anomaly": 260.2791,
        "meta_ephemeris_type": 0,
        "meta_classification_type": "U",
        "meta_norad_cat_id": 59065,
        "meta_element_set_no": 999,
        "meta_rev_at_epoch": 9843,
        "meta_bstar": 0.00036080478,
        "meta_mean_motion_dot": 0.00014669,
        "meta_mean_motion_ddot": 0,
        "tle_line1": "1 59065U 24039Q   25337.31663716  .00014669  00000+0  36080-3 0  9991",
        "tle_line2": "2 59065  97.4618 308.0531 0012657  99.9884 260.2791 15.40647767 98438"
      },
      "geometry": {
        "type": "Point",
        "coordinates": [
          -172.09776967527296,
          81.35075074567862
        ]
      }
    },
    {
      "type": "Feature",
      "properties": {
        "norad_id": 59371,
        "name": "RESURS-P 4",
        "group": "resource",
        "lat": 16.143636666034737,
        "lon": 106.2884101501623,
        "alt_km": 471.21158201024537,
        "timestamp": "2025-12-03T15:48:02.759492+00:00",
        "meta_object_name": "RESURS-P 4",
        "meta_object_id": "2024-061A",
        "meta_epoch": "2025-12-03T08:49:06.821184",
        "meta_mean_motion": 15.31967562,
        "meta_eccentricity": 0.00021586,
        "meta_inclination": 97.2528,
        "meta_ra_of_asc_node": 283.8909,
        "meta_arg_of_pericenter": 54.9959,
        "meta_mean_anomaly": 305.1486,
        "meta_ephemeris_type": 0,
        "meta_classification_type": "U",
        "meta_norad_cat_id": 59371,
        "meta_element_set_no": 999,
        "meta_rev_at_epoch": 9377,
        "meta_bstar": 0.00020122333,
        "meta_mean_motion_dot": 6.135e-05,
        "meta_mean_motion_ddot": 0,
        "tle_line1": "1 59371U 24061A   25337.36744006  .00006135  00000+0  20122-3 0  9992",
        "tle_line2": "2 59371  97.2528 283.8909 0002158  54.9959 305.1486 15.31967562 93774"
      },
      "geometry": {
        "type": "Point",
        "coordinates": [
          106.2884101501623,
          16.143636666034737
        ]
      }
    },
    {
      "type": "Feature",
      "properties": {
        "norad_id": 59625,
        "name": "LEGION 1",
        "group": "resource",
        "lat": 1.5798360141863492,
        "lon": -127.41616164134454,
        "alt_km": 523.0565763480408,
        "timestamp": "2025-12-03T15:48:02.759502+00:00",
        "meta_object_name": "LEGION 1",
        "meta_object_id": "2024-081A",
        "meta_epoch": "2025-12-03T07:05:53.008224",
        "meta_mean_motion": 15.16327554,
        "meta_eccentricity": 0.00047274,
        "meta_inclination": 97.523,
        "meta_ra_of_asc_node": 52.0155,
        "meta_arg_of_pericenter": 354.6703,
        "meta_mean_anomaly": 5.4478,
        "meta_ephemeris_type": 0,
        "meta_classification_type": "U",
        "meta_norad_cat_id": 59625,
        "meta_element_set_no": 999,
        "meta_rev_at_epoch": 8784,
        "meta_bstar": 0.00038891137,
        "meta_mean_motion_dot": 7.476e-05,
        "meta_mean_motion_ddot": 0,
        "tle_line1": "1 59625U 24081A   25337.29575241  .00007476  00000+0  38891-3 0  9992",
        "tle_line2": "2 59625  97.5230  52.0155 0004727 354.6703   5.4478 15.16327554 87845"
      },
      "geometry": {
        "type": "Point",
        "coordinates": [
          -127.41616164134454,
          1.5798360141863492
        ]
      }
    }
  ]
}